NORAD_CAT_ID,OBJECT_NAME,OBJECT_TYPE,EPOCH,MEAN_MOTION,ECCENTRICITY,INCLINATION,RA_OF_ASC_NODE,ARG_OF_PERICENTER,MEAN_ANOMALY,BSTAR,MEAN_MOTION_DOT,MEAN_MOTION_DDOT,TLE_LINE0,TLE_LINE1,TLE_LINE2,SEMIMAJOR_AXIS,PERIOD,APOGEE,PERIGEE,DECAYED
50191.0,STARLINK-3273,PAYLOAD,2022-01-02 08:00:01,15.81651699,0.0001061,53.2175,292.4199,95.3139,49.7506,-0.0043758999999999,-0.0081615,0.0,0 STARLINK-3273,1 50191U 21125AM  22002.33335648 -.00816150  00000-0 -43759-2 0  9991,2 50191  53.2175 292.4199 0001061  95.3139  49.7506 15.81651699  2830,6703.906,91.044,326.483,325.06,0.0
50191.0,STARLINK-3273,PAYLOAD,2022-01-04 21:39:04,15.78230381,0.0002589,53.2202,279.5953,247.5626,112.5122,-0.00076382,-0.0013232,0.0,0 STARLINK-3273,1 50191U 21125AM  22004.90213494 -.00132320  00000-0 -76382-3 0  9999,2 50191  53.2202 279.5953 0002589 247.5626 112.5122 15.78230381  6040,6713.590999999999,91.241,337.195,333.718,0.0
50191.0,STARLINK-3273,PAYLOAD,2022-01-06 04:05:39,15.75534469,0.0001153,53.2198,273.2933,124.289,235.8241,-0.0028404,-0.00420491,0.0,0 STARLINK-3273,1 50191U 21125AM  22006.17059064 -.00420491  00000-0 -28404-2 0  9991,2 50191  53.2198 273.2933 0001153 124.2890 235.8241 15.75534469  3154,6721.248000000001,91.398,343.88800000000015,342.338,0.0
50191.0,STARLINK-3273,PAYLOAD,2022-01-06 07:08:25,15.75323853,0.0001683,53.2194,272.6637,86.3825,273.7389,-0.0028419,-0.00417063,0.0,0 STARLINK-3273,1 50191U 21125AM  22006.29751642 -.00417063  00000-0 -28419-2 0  9992,2 50191  53.2194 272.6637 0001683  86.3825 273.7389 15.75323853  3177,6721.847,91.41,344.843,342.58,0.0
50191.0,STARLINK-3273,PAYLOAD,2022-01-06 17:48:01,15.75124667,0.0002563999999999,53.2197,270.4595,172.6603,187.4456,-0.0015261,-0.00227317,0.0,0 STARLINK-3273,1 50191U 21125AM  22006.74168910 -.00227317  00000-0 -15261-2 0  9994,2 50191  53.2197 270.4595 0002564 172.6603 187.4456 15.75124667  3247,6722.413000000001,91.421,346.00199999999984,342.555,0.0
50191.0,STARLINK-3273,PAYLOAD,2022-01-07 01:25:40,15.73866676,0.0001527,53.2198,268.8891,97.537,262.5824,-0.0018976,-0.00266217,0.0,0 STARLINK-3273,1 50191U 21125AM  22007.05949412 -.00266217  00000-0 -18976-2 0  9991,2 50191  53.2198 268.8891 0001527  97.5370 262.5824 15.73866676  3292,6725.995,91.494,348.88699999999994,346.833,0.0
50191.0,STARLINK-3273,PAYLOAD,2022-01-09 22:00:00,15.73230168,9.46e-05,53.218,254.7513,97.4988,254.1081,2.9412e-05,3.515e-05,0.0,0 STARLINK-3273,1 50191U 21125AM  22009.91667824  .00003515  00000-0  29412-4 0  9999,2 50191  53.2180 254.7513 0000946  97.4988 254.1081 15.73230168  3749,6727.809,91.531,350.311,349.038,0.0
50191.0,STARLINK-3273,PAYLOAD,2022-01-10 14:00:01,15.73199733,0.0001283,53.2177,251.4506,105.6895,63.8267,-0.00028248,-0.00040075,0.0,0 STARLINK-3273,1 50191U 21125AM  22010.58334491 -.00040075  00000-0 -28248-3 0  9994,2 50191  53.2177 251.4506 0001283 105.6895  63.8267 15.73199733  3850,6727.896,91.533,350.624,348.898,0.0
50191.0,STARLINK-3273,PAYLOAD,2022-01-10 22:00:00,15.73141635,0.0001448,53.218,249.8032,94.8902,163.5392,2.7202e-05,3.19e-05,0.0,0 STARLINK-3273,1 50191U 21125AM  22010.91667824  .00003190  00000-0  27202-4 0  9995,2 50191  53.2180 249.8032 0001448  94.8902 163.5392 15.73141635  3732,6728.062,91.537,350.901,348.952,0.0
50191.0,STARLINK-3273,PAYLOAD,2022-01-11 14:00:01,15.7315865,0.0001419,53.2181,246.5028,102.1205,334.0589,0.00042915,0.00059932,0.0,0 STARLINK-3273,1 50191U 21125AM  22011.58334491  .00059932  00000-0  42915-3 0  9992,2 50191  53.2181 246.5028 0001419 102.1205 334.0589 15.73158650  4008,6728.013000000001,91.536,350.833,348.923,0.0
50191.0,STARLINK-3273,PAYLOAD,2022-01-11 22:00:00,15.73199633,0.0001403,53.2178,244.8554,92.6826,72.4049,6.1276e-05,7.988e-05,0.0,0 STARLINK-3273,1 50191U 21125AM  22011.91667824  .00007988  00000-0  61276-4 0  9994,2 50191  53.2178 244.8554 0001403  92.6826  72.4049 15.73199633  3711,6727.896,91.533,350.705,348.81699999999995,0.0
50191.0,STARLINK-3273,PAYLOAD,2022-01-12 06:00:00,15.73228641,0.000134,53.2173,243.2056,94.1997,159.8079,-8.1163e-05,-0.00012009,0.0,0 STARLINK-3273,1 50191U 21125AM  22012.25001157 -.00012009  00000-0 -81163-4 0  9992,2 50191  53.2173 243.2056 0001340  94.1997 159.8079 15.73228641  4112,6727.814,91.532,350.58,348.777,0.0
50191.0,STARLINK-3273,PAYLOAD,2022-01-12 14:00:01,15.73220082,0.0001341,53.2175,241.5546,104.9498,238.0189,0.00040165,0.00056175,0.0,0 STARLINK-3273,1 50191U 21125AM  22012.58334491  .00056175  00000-0  40165-3 0  9994,2 50191  53.2175 241.5546 0001341 104.9498 238.0189 15.73220082  3736,6727.8380000000025,91.532,350.605,348.801,0.0
50191.0,STARLINK-3273,PAYLOAD,2022-01-13 14:00:01,15.73220796,0.0001036,53.2177,236.6065,106.4963,143.3283,0.00017308,0.00023761,0.0,0 STARLINK-3273,1 50191U 21125AM  22013.58334491  .00023761  00000-0  17308-3 0  9993,2 50191  53.2177 236.6065 0001036 106.4963 143.3283 15.73220796  4325,6727.8359999999975,91.532,350.398,349.004,0.0
50191.0,STARLINK-3273,PAYLOAD,2022-01-13 22:00:00,15.7321787,9.08e-05,53.2173,234.9591,92.361,246.442,-0.0003105,-0.00044,0.0,0 STARLINK-3273,1 50191U 21125AM  22013.91667824 -.00044000  00000-0 -31050-3 0  9990,2 50191  53.2173 234.9591 0000908  92.3610 246.4420 15.73217870  3691,6727.844,91.532,350.32,349.098,0.0
50191.0,STARLINK-3273,PAYLOAD,2022-01-14 06:00:00,15.73213398,8.2e-05,53.2166,233.3056,98.4771,329.2614,5.6429e-05,7.311e-05,0.0,0 STARLINK-3273,1 50191U 21125AM  22014.25001157  .00007311  00000-0  56429-4 0  9999,2 50191  53.2166 233.3056 0000820  98.4771 329.2614 15.73213398  4428,6727.857,91.532,350.274,349.17,0.0
50191.0,STARLINK-3273,PAYLOAD,2022-01-14 14:00:01,15.73243395,0.0001463,53.2168,231.6494,97.3224,59.0988,-0.00027346,-0.00038893,0.0,0 STARLINK-3273,1 50191U 21125AM  22014.58334491 -.00038893  00000-0 -27346-3 0  9991,2 50191  53.2168 231.6494 0001463  97.3224  59.0988 15.73243395  3715,6727.771,91.531,350.621,348.652,0.0
50191.0,STARLINK-3273,PAYLOAD,2022-01-14 22:00:00,15.7325092,0.0001496999999999,53.2174,229.9982,89.6355,155.7442,-0.00090738,-0.00126348,0.0,0 STARLINK-3273,1 50191U 21125AM  22014.91667824 -.00126348  00000-0 -90738-3 0  9995,2 50191  53.2174 229.9982 0001497  89.6355 155.7442 15.73250920  3766,6727.75,91.53,350.622,348.608,0.0
50191.0,STARLINK-3273,PAYLOAD,2022-01-15 06:00:00,15.73276709,0.0001085,53.2171,228.3488,113.4659,220.8321,-0.0056188,-0.00726764,0.0,0 STARLINK-3273,1 50191U 21125AM  22015.25001157 -.00726764  00000-0 -56188-2 0  9992,2 50191  53.2171 228.3488 0001085 113.4659 220.8321 15.73276709  4587,6727.676,91.529,350.271,348.81199999999984,0.0
50191.0,STARLINK-3273,PAYLOAD,2022-01-15 14:00:01,15.72762047,0.0001039,53.2177,226.6954,91.8348,331.2333,-0.0051689,-0.00659236,0.0,0 STARLINK-3273,1 50191U 21125AM  22015.58335648 -.00659236  00000-0 -51689-2 0  9993,2 50191  53.2177 226.6954 0001039  91.8348 331.2333 15.72762047  3724,6729.144,91.559,351.708,350.31,0.0
50191.0,STARLINK-3273,PAYLOAD,2022-01-15 22:00:01,15.72296846,0.0001200999999999,53.2175,225.0482,79.7231,71.4621,-0.0052946999999999,-0.00661782,0.0,0 STARLINK-3273,1 50191U 21125AM  22015.91668981 -.00661782  00000-0 -52947-2 0  9996,2 50191  53.2175 225.0482 0001201  79.7231  71.4621 15.72296846  4697,6730.471,91.586,353.145,351.528,0.0
50191.0,STARLINK-3273,PAYLOAD,2022-01-16 14:00:01,15.71363041,0.0001077,53.2175,221.7513,96.2267,229.4499,-0.0054915,-0.0065976,0.0,0 STARLINK-3273,1 50191U 21125AM  22016.58334491 -.00659760  00000-0 -54915-2 0  9996,2 50191  53.2175 221.7513 0001077  96.2267 229.4499 15.71363041  3710,6733.138000000001,91.64,355.728,354.277,0.0
50191.0,STARLINK-3273,PAYLOAD,2022-01-16 22:00:00,15.70897907,0.0001041,53.2174,220.1077,80.8568,331.2551,-0.0056306,-0.00663021,0.0,0 STARLINK-3273,1 50191U 21125AM  22016.91667824 -.00663021  00000-0 -56306-2 0  9993,2 50191  53.2174 220.1077 0001041  80.8568 331.2551 15.70897907  3714,6734.467,91.667,357.033,355.63,0.0
50191.0,STARLINK-3273,PAYLOAD,2022-01-17 00:00:00,15.70774952,0.0001152,53.2174,219.6965,78.8891,84.7467,-0.0055615,-0.00652356,0.0,0 STARLINK-3273,1 50191U 21125AM  22017.00001157 -.00652356  00000-0 -55615-2 0  9996,2 50191  53.2174 219.6965 0001152  78.8891  84.7467 15.70774952  4869,6734.818,91.674,357.459,355.907,0.0
50191.0,STARLINK-3273,PAYLOAD,2022-01-17 14:00:01,15.69963555,0.0001223,53.2177,216.8175,94.3738,128.9314,-0.0058238,-0.00659656,0.0,0 STARLINK-3273,1 50191U 21125AM  22017.58334491 -.00659656  00000-0 -58238-2 0  9993,2 50191  53.2177 216.8175 0001223  94.3738 128.9314 15.69963555  3729,6737.138000000001,91.722,359.827,358.17900000000014,0.0
50191.0,STARLINK-3273,PAYLOAD,2022-01-17 22:00:00,15.69497818,0.0001114,53.2177,215.1772,82.7937,225.2653,-0.0059644,-0.00662327,0.0,0 STARLINK-3273,1 50191U 21125AM  22017.91667824 -.00662327  00000-0 -59644-2 0  9990,2 50191  53.2177 215.1772 0001114  82.7937 225.2653 15.69497818  5009,6738.471,91.749,361.087,359.585,0.0
50191.0,STARLINK-3273,PAYLOAD,2022-01-18 14:00:01,15.68562926,0.0001131,53.2175,211.8939,76.2589,39.6298,-0.0061626999999999,-0.00658593,0.0,0 STARLINK-3273,1 50191U 21125AM  22018.58334491 -.00658593  00000-0 -61627-2 0  9999,2 50191  53.2175 211.8939 0001131  76.2589  39.6298 15.68562926  3704,6741.148,91.804,363.776,362.251,0.0
50191.0,STARLINK-3273,PAYLOAD,2022-01-18 22:00:00,15.68095527,0.0001236,53.2174,210.257,75.9303,123.0306,-0.0062691,-0.00657289,0.0,0 STARLINK-3273,1 50191U 21125AM  22018.91667824 -.00657289  00000-0 -62691-2 0  9998,2 50191  53.2174 210.2570 0001236  75.9303 123.0306 15.68095527  3697,6742.488,91.831,365.186,363.519,0.0
50191.0,STARLINK-3273,PAYLOAD,2022-01-19 06:00:02,15.67502025,9.96e-05,53.2173,208.6192,73.4944,208.116,-0.0047225,-0.00492961,0.0,0 STARLINK-3273,1 50191U 21125AM  22019.25002315 -.00492961  00000-0 -47225-2 0  9994,2 50191  53.2173 208.6192 0000996  73.4944 208.1160 15.67502025  5211,6744.19,91.866,366.726,365.383,0.0
